SITRO-AIS 9 (SHCHUKIN)  
1 57201U 23091AM  25157.56102990  .00008835  00000+0  36540-3 0  9996
2 57201  97.5592 217.2362 0007996 331.9314  28.1491 15.24179654107290
UTMN 2 (RS27S)          
1 57203U 23091AP  25157.61332028  .00006786  00000+0  30257-3 0  9993
2 57203  97.5604 216.4842 0008830 328.9010  31.1702 15.21708161107249
SITRO-AIS 12 (SMIRENNIY)
1 57204U 23091AQ  25157.60914964  .00008507  00000+0  34990-3 0  9999
2 57204  97.5602 217.5655 0007754 324.5222  35.5498 15.24381932107317
ARCCUBE 1 (RS25S)       
1 57205U 23091AR  25157.60920825  .00034980  00000+0  73646-3 0  9998
2 57205  97.5470 223.1208 0003700 298.5566  61.5309 15.45197605107715
SITRO-AIS 11 (SHEFFER)  
1 57208U 23091AU  25157.56251880  .00009035  00000+0  36920-3 0  9991
2 57208  97.5600 217.6061 0007625 325.1664  34.9074 15.24582080107315
H2SAT (HEINRICH HERTZ)  
1 57213U 23093A   25157.58501589  .00000038  00000+0  00000+0 0  9995
2 57213   0.0338 209.0393 0000315 352.5083 327.3871  1.00271488  7150
KUZGTU 1 (RS47S)        
1 57217U 23091AV  25157.58629736  .00006808  00000+0  31781-3 0  9997
2 57217  97.5590 214.8749 0012657 341.6499  18.4277 15.20090382107143
2023-103B               
1 57422U 23103B   25157.54954119  .00134241  75293-5  23041-3 0  9996
2 57422  96.4502 219.3907 0033930 116.2135 244.2641 16.01263447107090
FENGYUN 3F              
1 57490U 23111A   25157.59954213  .00000058  00000+0  47762-4 0  9993
2 57490  98.7270 228.7006 0001813 117.9220 242.2140 14.20044846 95563
HJ-2F                   
1 57519U 23116A   25157.59549627  .00006401  00000+0  28390-3 0  9992
2 57519  97.3853 164.6199 0001441 199.6394 160.4787 15.21929259101630
XRISM                   
1 57800U 23137A   25157.58904626  .00003863  00000+0  23882-3 0  9991
2 57800  31.0023 264.2607 0008100 146.2174 213.8981 15.08046419 96030
VERONIKA                
1 58261U 23174F   25157.52593876  .00119546  00000+0  10009-2 0  9991
2 58261  97.4121 243.5179 0002087  97.9403 262.2096 15.69607508 88200
GRBBETA                 
1 60237U 24128C   25157.54174127  .00003937  00000+0  30147-3 0  9995
2 60237  61.9915  90.1507 0051772  56.8446 303.7596 15.02605980 49741
2024-149A               
1 60468U 24149A   25157.17233777  .00005608  00000+0  22575-3 0  9993
2 60468  97.4072 234.6639 0005392 111.5103 248.6710 15.25266642 44600
WARATAH SEED-1          
1 60469U 24149B   25157.21223617  .00006786  00000+0  27098-3 0  9994
2 60469  97.4050 234.7099 0004058 112.5428 247.6239 15.25462103 44613
PHISAT 2                
1 60470U 24149C   25157.18379071  .00004526  00000+0  18798-3 0  9995
2 60470  97.4104 234.6091 0003334 113.9481 246.2105 15.24323153 44590
LEMUR-2-TOMATOKECHUP    
1 60471U 24149D   25157.47533632  .00006243  00000+0  23994-3 0  9995
2 60471  97.4125 235.5252 0003593 120.1828 239.9767 15.26774344 44671
CONNECTA IOT-1          
1 60472U 24149E   25157.46944107  .00003613  00000+0  15737-3 0  9992
2 60472  97.4111 234.5543 0003574 126.5383 233.6183 15.22841890 44618
LOPEN                   
1 60473U 24149F   25157.18218771  .00007244  00000+0  26927-3 0  9990
2 60473  97.4110 235.4138 0003227 129.9379 230.2144 15.27830374 44648
ROCK                    
1 60474U 24149G   25157.17677743  .00007626  00000+0  28286-3 0  9992
2 60474  97.4109 235.4171 0003222 129.4020 230.7505 15.27881832 44648
CONNECTA IOT-3          
1 60475U 24149H   25157.46860436  .00003589  00000+0  15436-3 0  9995
2 60475  97.4061 234.5187 0005309 131.3598 228.8096 15.23268998 44622
QUBE                    
1 60476U 24149J   25157.48047816  .00009750  00000+0  33619-3 0  9996
2 60476  97.4104 236.2266 0004168 128.4834 231.6781 15.30195302 44720
SATORO-T2               
1 60477U 24149K   25157.18199368  .00022445  00000+0  64116-3 0  9996
2 60477  97.4089 236.9750 0003273 127.5453 232.6089 15.36014014 44752
WREN-1                  
1 60478U 24149L   25157.15649941  .00005212  00000+0  18868-3 0  9997
2 60478  97.4091 235.8129 0006968 151.6591 208.5029 15.28825017 44670
TOMORROW-S1             
1 60479U 24149M   25157.55338997  .00004736  00000+0  18668-3 0  9996
2 60479  97.4076 235.3720 0004474 127.1404 233.0244 15.26055988 44680
FLOCK 4BE-18            
1 60480U 24149N   25157.19617928  .00006909  00000+0  25437-3 0  9998
2 60480  97.4070 235.4037 0006177 144.3155 215.8499 15.28151464 44659
FLOCK 4BE-7             
1 60481U 24149P   25157.45857311  .00006777  00000+0  25547-3 0  9995
2 60481  97.4102 235.6312 0005328 142.1423 218.0192 15.27380518 44686
FLOCK 4BE-4             
1 60482U 24149Q   25157.48654590  .00016864  00000+0  31373-3 0  9995
2 60482  97.4085 241.4516 0003225 105.5090 254.6517 15.48943565 45076
FLOCK 4BE-16            
1 60483U 24149R   25157.19049803  .00007029  00000+0  25878-3 0  9995
2 60483  97.4092 235.4816 0004727 139.7536 220.4054 15.28153558 44656
FLOCK 4BE-26            
1 60484U 24149S   25157.48029514  .00007311  00000+0  27242-3 0  9996
2 60484  97.4065 235.5955 0005537 143.2219 216.9401 15.27733918 44693
TOMORROW-S2             
1 60485U 24149T   25157.46264755  .00004287  00000+0  17024-3 0  9999
2 60485  97.4139 235.5703 0004514 138.2346 221.9237 15.25864806 44676
FLOCK 4BE-36            
1 60486U 24149U   25157.18076126  .00007542  00000+0  27094-3 0  9997
2 60486  97.4072 235.5620 0006052 152.0880 208.0686 15.28929012 44664
FLOCK 4BE-25            
1 60487U 24149V   25157.17703453  .00006176  00000+0  23337-3 0  9995
2 60487  97.4124 235.4704 0004524 137.7071 222.4517 15.27341082 44644
FLOCK 4BE-31            
1 60488U 24149W   25156.77358532  .00009632  00000+0  34405-3 0  9993
2 60488  97.4123 235.3925 0004863 147.9776 212.1760 15.29042489 44602
FLOCK 4BE-20            
1 60489U 24149X   25157.47351275  .00006491  00000+0  24806-3 0  9993
2 60489  97.4043 235.3888 0005829 146.4563 213.7046 15.26942987 44684
FLOCK 4BE-23            
1 60490U 24149Y   25157.18634618  .00006452  00000+0  24834-3 0  9996
2 60490  97.4116 235.2766 0005410 149.2151 210.9406 15.26707054 44639
FLOCK 4BE-15            
1 60491U 24149Z   25157.17382231  .00005737  00000+0  21310-3 0  9998
2 60491  97.4056 235.3386 0005640 148.3909 211.7670 15.27935292 44650
FLOCK 4BE-17            
1 60492U 24149AA  25157.17785891  .00007239  00000+0  27166-3 0  9992
2 60492  97.4117 235.4681 0004838 145.1772 214.9784 15.27509719 44640
NUSAT-50 (NANCY ROMAN)  
1 60493U 24149AB  25157.46711838  .00006894  00000+0  25633-3 0  9998
2 60493  97.4100 235.7666 0005340 148.7031 211.4527 15.27831802 44698
FLOCK 4BE-22            
1 60494U 24149AC  25157.17425434  .00008375  00000+0  30878-3 0  9994
2 60494  97.4065 235.3944 0006210 159.5022 200.6468 15.28037367 44656
FLOCK 4BE-34            
1 60495U 24149AD  25157.19318035  .00006570  00000+0  23625-3 0  9992
2 60495  97.4110 235.7098 0005510 160.7650 199.3799 15.28950755 44662
TYCHE                   
1 60496U 24149AE  25157.55036301  .00003909  00000+0  16702-3 0  9997
2 60496  97.4106 234.8961 0005191 158.9292 201.2160 15.23445319 44646
FLOCK 4BE-32            
1 60497U 24149AF  25157.17596667  .00007555  00000+0  27526-3 0  9999
2 60497  97.4051 235.4904 0005713 153.6774 206.4757 15.28464830 44662
NUSAT-48 (HENRIETTA LE*)
1 60498U 24149AG  25157.45969068  .00006866  00000+0  25566-3 0  9996
2 60498  97.4072 235.6503 0005779 159.5522 200.5950 15.27780164 44694
FLOCK 4BE-30            
1 60499U 24149AH  25157.18555940  .00006799  00000+0  24771-3 0  9999
2 60499  97.4130 235.7724 0004811 152.3821 207.7675 15.28510633 44040
NUSAT-49 (KLARA DAN VO*)
1 60500U 24149AJ  25157.19756674  .00006930  00000+0  25850-3 0  9996
2 60500  97.4095 235.5000 0004945 152.5512 207.5989 15.27721219 44651
FLOCK 4BE-11            
1 60501U 24149AK  25157.23555946  .00007598  00000+0  27470-3 0  9992
2 60501  97.4042 235.5547 0005962 158.9203 201.2284 15.28714505 44679
FLOCK 4BE-33            
1 60502U 24149AL  25157.16170191  .00008062  00000+0  30429-3 0  9995
2 60502  97.4058 235.2509 0005633 164.9550 195.1858 15.27276434 44647
FLOCK 4BE-10            
1 60503U 24149AM  25157.19592994  .00006312  00000+0  23594-3 0  9999
2 60503  97.4111 235.5669 0004563 155.3604 204.7854 15.27692760 44651
YAM-7                   
1 60504U 24149AN  25157.47503636  .00004877  00000+0  19670-3 0  9990
2 60504  97.4118 235.3343 0004367 162.3209 197.8181 15.25276693 44664
FLOCK 4BE-24            
1 60505U 24149AP  25157.18315469  .00007603  00000+0  27309-3 0  9992
2 60505  97.4051 235.6339 0005736 168.7975 191.3394 15.28929914 44670
LUR-1                   
1 60506U 24149AQ  25157.47012481  .00003377  00000+0  14302-3 0  9996
2 60506  97.4097 234.9597 0004734 172.9991 187.1313 15.23842403 44644
TANAGER-1               
1 60507U 24149AR  25157.48077892  .00010204  00000+0  22775-3 0  9995
2 60507  97.4059 241.4619 0009006 242.1864 117.8471 15.43705827 45070
EAGLEEYE                
1 60508U 24149AS  25157.46744105  .00014003  00000+0  41766-3 0  9994
2 60508  97.4077 237.1522 0005157 163.3989 196.7424 15.34748366 44798
FLOCK 4BE-29            
1 60509U 24149AT  25157.17175968  .00009007  00000+0  31559-3 0  9995
2 60509  97.4128 236.0959 0003955 171.0149 189.1163 15.29696449 44688
2024-149AU              
1 60510U 24149AU  25157.47349726  .00007345  00000+0  26639-3 0  9991
2 60510  97.4067 235.9061 0004917 171.1602 188.9725 15.28627951 44714
FLOCK 4BE-2             
1 60511U 24149AV  25157.17184787  .00009652  00000+0  33234-3 0  9995
2 60511  97.4135 236.2701 0004402 167.0993 193.0361 15.30243467 44691
FLOCK 4BE-13            
1 60512U 24149AW  25157.19676897  .00006718  00000+0  23815-3 0  9990
2 60512  97.4046 235.7413 0005895 166.3163 193.8238 15.29406551 44688
FLOCK 4BE-27            
1 60513U 24149AX  25157.47243512  .00005752  00000+0  22360-3 0  9997
2 60513  97.4145 235.7311 0004764 178.9450 181.1799 15.26429246 44683
